NORAD_CAT_ID,OBJECT_NAME,OBJECT_TYPE,EPOCH,MEAN_MOTION,ECCENTRICITY,INCLINATION,RA_OF_ASC_NODE,ARG_OF_PERICENTER,MEAN_ANOMALY,BSTAR,MEAN_MOTION_DOT,MEAN_MOTION_DDOT,TLE_LINE0,TLE_LINE1,TLE_LINE2,SEMIMAJOR_AXIS,PERIOD,APOGEE,PERIGEE,DECAYED
55417.0,STARLINK-5616,PAYLOAD,2023-11-08 13:20:35,14.98329374,0.000301,70.0006,72.8776,270.4045,89.6769,0.00010723,1.187e-05,0.0,0 STARLINK-5616,1 55417U 23014AC  23312.55596256  .00001187  00000-0  10723-3 0  9999,2 55417  70.0006  72.8776 0003010 270.4045  89.6769 14.98329374 43923,6950.195,96.107,574.152,569.968,0.0
55417.0,STARLINK-5616,PAYLOAD,2023-11-08 18:08:58,14.98339886,0.0003133,70.0001,72.3731,267.727,92.3531,0.0001267,1.419e-05,0.0,0 STARLINK-5616,1 55417U 23014AC  23312.75623494  .00001419  00000-0  12670-3 0  9997,2 55417  70.0001  72.3731 0003133 267.7270  92.3531 14.98339886 43959,6950.162,96.106,574.205,569.85,0.0
55417.0,STARLINK-5616,PAYLOAD,2023-11-09 11:46:28,14.9832297,0.0002811,70.0016,70.5218,269.6751,90.4086,0.00022435,2.584e-05,0.0,0 STARLINK-5616,1 55417U 23014AC  23313.49060821  .00002584  00000-0  22435-3 0  9992,2 55417  70.0016  70.5218 0002811 269.6751  90.4086 14.98322970 44065,6950.215,96.107,574.033,570.126,0.0
55417.0,STARLINK-5616,PAYLOAD,2023-11-09 18:11:00,14.98326426,0.0002737,70.0012,69.8478,271.987,88.0975,0.00024431,2.823e-05,0.0,0 STARLINK-5616,1 55417U 23014AC  23313.75764650  .00002823  00000-0  24431-3 0  9996,2 55417  70.0012  69.8478 0002737 271.9870  88.0975 14.98326426 44100,6950.204,96.107,573.971,570.167,0.0
55417.0,STARLINK-5616,PAYLOAD,2023-11-10 00:35:32,14.98345725,0.0002799,70.0018,69.1743,276.1257,83.9583,-0.00018702,-2.325e-05,0.0,0 STARLINK-5616,1 55417U 23014AC  23314.02468394 -.00002325  00000-0 -18702-3 0  9996,2 55417  70.0018  69.1743 0002799 276.1257  83.9583 14.98345725 44144,6950.144,96.106,573.955,570.064,0.0
55417.0,STARLINK-5616,PAYLOAD,2023-11-10 11:48:30,14.98315401,0.0002325,70.0012,67.9975,240.7905,119.3022,-0.00027827,-3.41e-05,0.0,0 STARLINK-5616,1 55417U 23014AC  23314.49202527 -.00003410  00000-0 -27827-3 0  9995,2 55417  70.0012  67.9975 0002325 240.7905 119.3022 14.98315401 44211,6950.238,96.108,573.719,570.487,0.0
55417.0,STARLINK-5616,PAYLOAD,2023-11-10 13:24:35,14.98353719,0.0002751,70.0014,67.8293,278.8405,81.2443,0.00029718,3.457e-05,0.0,0 STARLINK-5616,1 55417U 23014AC  23314.55874987  .00003457  00000-0  29718-3 0  9997,2 55417  70.0014  67.8293 0002751 278.8405  81.2443 14.98353719 44224,6950.12,96.105,573.897,570.073,0.0
55417.0,STARLINK-5616,PAYLOAD,2023-11-10 18:13:01,14.98338178,0.0002741,70.0013,67.3245,282.4387,77.6465,6.9178e-06,-1e-07,0.0,0 STARLINK-5616,1 55417U 23014AC  23314.75904544 -.00000010  00000-0  69178-5 0  9991,2 55417  70.0013  67.3245 0002741 282.4387  77.6465 14.98338178 44252,6950.168,96.106,573.938,570.128,0.0
55417.0,STARLINK-5616,PAYLOAD,2023-11-11 11:50:30,14.98331655,0.0002807,70.0014,65.4726,266.5763,93.5075,-1.32e-05,-2.5e-06,0.0,0 STARLINK-5616,1 55417U 23014AC  23315.49340599 -.00000250  00000-0 -13200-4 0  9998,2 55417  70.0014  65.4726 0002807 266.5763  93.5075 14.98331655 44369,6950.188,96.107,574.004,570.102,0.0
55417.0,STARLINK-5616,PAYLOAD,2023-11-11 13:26:38,14.98331106,0.0003019,70.001,65.304,267.7705,92.3108,-2.39e-06,-1.22e-06,0.0,0 STARLINK-5616,1 55417U 23014AC  23315.56016559 -.00000122  00000-0 -23900-5 0  9999,2 55417  70.0010  65.3040 0003019 267.7705  92.3108 14.98331106 44374,6950.189,96.107,574.153,569.956,0.0
55417.0,STARLINK-5616,PAYLOAD,2023-11-11 16:38:54,14.98331926,0.0002927,70.0011,64.9677,268.0657,92.0167,3.0608e-05,2.72e-06,0.0,0 STARLINK-5616,1 55417U 23014AC  23315.69368406  .00000272  00000-0  30608-4 0  9990,2 55417  70.0011  64.9677 0002927 268.0657  92.0167 14.98331926 44397,6950.187,96.107,574.086,570.018,0.0
55417.0,STARLINK-5616,PAYLOAD,2023-11-12 11:52:30,14.98334244,0.0002823,70.001,62.9477,268.8817,91.2018,8.5899e-05,9.32e-06,0.0,0 STARLINK-5616,1 55417U 23014AC  23316.49479925  .00000932  00000-0  85899-4 0  9993,2 55417  70.0010  62.9477 0002823 268.8817  91.2018 14.98334244 44519,6950.18,96.107,574.007,570.083,0.0
55417.0,STARLINK-5616,PAYLOAD,2023-11-12 13:28:38,14.98337854,0.0002896,70.0007,62.7781,267.9511,92.1317,8.8288e-05,9.61e-06,0.0,0 STARLINK-5616,1 55417U 23014AC  23316.56155631  .00000961  00000-0  88288-4 0  9993,2 55417  70.0007  62.7781 0002896 267.9511  92.1317 14.98337854 44525,6950.169,96.106,574.046,570.021,0.0
55417.0,STARLINK-5616,PAYLOAD,2023-11-12 16:40:54,14.98343213,0.000316,70.0005,62.4411,270.8928,89.1869,0.0001239,1.386e-05,0.0,0 STARLINK-5616,1 55417U 23014AC  23316.69507093  .00001386  00000-0  12390-3 0  9992,2 55417  70.0005  62.4411 0003160 270.8928  89.1869 14.98343213 44546,6950.152,96.106,574.213,569.821,0.0
55417.0,STARLINK-5616,PAYLOAD,2023-11-13 11:54:31,14.98332088,0.0002981,70.0008,60.4225,267.426,92.6557,4.2522e-05,4.14e-06,0.0,0 STARLINK-5616,1 55417U 23014AC  23317.49619767  .00000414  00000-0  42522-4 0  9995,2 55417  70.0008  60.4225 0002981 267.4260  92.6557 14.98332088 44665,6950.186,96.107,574.123,569.98,0.0
55417.0,STARLINK-5616,PAYLOAD,2023-11-13 13:30:39,14.98341243,0.0002944,70.0006,60.2535,268.0611,92.0211,-7.7512e-05,-1.018e-05,0.0,0 STARLINK-5616,1 55417U 23014AC  23317.56295487 -.00001018  00000-0 -77512-4 0  9992,2 55417  70.0006  60.2535 0002944 268.0611  92.0211 14.98341243 44676,6950.158,96.106,574.069,569.977,0.0
55417.0,STARLINK-5616,PAYLOAD,2023-11-14 11:56:33,14.98322837,0.0002949,70.0006,57.897,270.3072,89.7749,-0.00013582,-1.713e-05,0.0,0 STARLINK-5616,1 55417U 23014AC  23318.49760675 -.00001713  00000-0 -13582-3 0  9999,2 55417  70.0006  57.8970 0002949 270.3072  89.7749 14.98322837 44816,6950.215,96.107,574.13,570.03,0.0
55417.0,STARLINK-5616,PAYLOAD,2023-11-14 13:32:40,14.98331187,0.0003012,70.0007,57.7292,271.7556,88.3258,-7.4829e-05,-9.86e-06,0.0,0 STARLINK-5616,1 55417U 23014AC  23318.56436062 -.00000986  00000-0 -74829-4 0  9990,2 55417  70.0007  57.7292 0003012 271.7556  88.3258 14.98331187 44826,6950.189,96.107,574.148,569.961,0.0
55417.0,STARLINK-5616,PAYLOAD,2023-11-15 10:22:25,14.98332736,0.0002753,70.0004,55.54,263.8912,96.1933,-1.765e-09,-9.3e-07,0.0,0 STARLINK-5616,1 55417U 23014AC  23319.43223777 -.00000093  00000-0 -17650-8 0  9996,2 55417  70.0004  55.5400 0002753 263.8912  96.1933 14.98332736 44951,6950.184,96.107,573.963,570.136,0.0
55417.0,STARLINK-5616,PAYLOAD,2023-11-15 23:11:30,14.9832887,0.0002271,70.0024,54.1945,275.9376,84.1524,-5.0507e-05,-6.95e-06,0.0,0 STARLINK-5616,1 55417U 23014AC  23319.96632259 -.00000695  00000-0 -50507-4 0  9995,2 55417  70.0024  54.1945 0002271 275.9376  84.1524 14.98328870 45032,6950.196,96.107,573.64,570.483,0.0
55417.0,STARLINK-5616,PAYLOAD,2023-11-16 08:48:18,14.98324518,0.0002955,70.0007,53.1841,274.9992,85.083,6.354e-05,6.65e-06,0.0,0 STARLINK-5616,1 55417U 23014AC  23320.36688125  .00000665  00000-0  63540-4 0  9990,2 55417  70.0007  53.1841 0002955 274.9992  85.0830 14.98324518 45090,6950.21,96.107,574.129,570.021,0.0
55417.0,STARLINK-5616,PAYLOAD,2023-11-16 23:13:30,14.9834322,0.0002953,70.001,51.6689,275.7314,84.3509,-0.00021234,-2.627e-05,0.0,0 STARLINK-5616,1 55417U 23014AC  23320.96771607 -.00002627  00000-0 -21234-3 0  9999,2 55417  70.0010  51.6689 0002953 275.7314  84.3509 14.98343220 45188,6950.152,96.106,574.069,569.965,0.0
55417.0,STARLINK-5616,PAYLOAD,2023-11-17 12:02:35,14.98330269,0.0002908,70.0006,50.3231,271.8879,88.1947,-1.3748e-05,-2.57e-06,0.0,0 STARLINK-5616,1 55417U 23014AC  23321.50180050 -.00000257  00000-0 -13748-4 0  9995,2 55417  70.0006  50.3231 0002908 271.8879  88.1947 14.98330269 45261,6950.192,96.107,574.078,570.036,0.0
55417.0,STARLINK-5616,PAYLOAD,2023-11-17 16:50:59,14.98330108,0.0002909,70.0007,49.8182,272.0729,88.0097,-1.4976e-05,-2.72e-06,0.0,0 STARLINK-5616,1 55417U 23014AC  23321.70208054 -.00000272  00000-0 -14976-4 0  9993,2 55417  70.0007  49.8182 0002909 272.0729  88.0097 14.98330108 45298,6950.193,96.107,574.079,570.036,0.0
55417.0,STARLINK-5616,PAYLOAD,2023-11-17 23:15:32,14.98302696,0.0003003,70.0004,49.1448,269.5334,90.5481,0.00042848,5.02e-05,0.0,0 STARLINK-5616,1 55417U 23014AC  23321.96912123  .00005020  00000-0  42848-3 0  9992,2 55417  70.0004  49.1448 0003003 269.5334  90.5481 14.98302696 45333,6950.277,96.109,574.229,570.055,0.0
55417.0,STARLINK-5616,PAYLOAD,2023-11-18 12:04:36,14.98328393,0.0003035,70.0003,47.7985,271.37,88.7111,3.9433e-05,3.78e-06,0.0,0 STARLINK-5616,1 55417U 23014AC  23322.50319922  .00000378  00000-0  39433-4 0  9999,2 55417  70.0003  47.7985 0003035 271.3700  88.7111 14.98328393 45415,6950.198,96.107,574.172,569.953,0.0
55417.0,STARLINK-5616,PAYLOAD,2023-11-18 15:16:52,14.98329294,0.0003027,70.0005,47.4616,270.8554,89.2258,1.9449e-05,1.39e-06,0.0,0 STARLINK-5616,1 55417U 23014AC  23322.63671921  .00000139  00000-0  19449-4 0  9993,2 55417  70.0005  47.4616 0003027 270.8554  89.2258 14.98329294 45438,6950.195,96.107,574.164,569.956,0.0
55417.0,STARLINK-5616,PAYLOAD,2023-11-19 12:06:37,14.98326399,0.0002772,70.0008,45.2731,266.346,93.7382,5.9031e-05,6.11e-06,0.0,0 STARLINK-5616,1 55417U 23014AC  23323.50459957  .00000611  00000-0  59031-4 0  9999,2 55417  70.0008  45.2731 0002772 266.3460  93.7382 14.98326399 45562,6950.204,96.107,573.996,570.142,0.0
55417.0,STARLINK-5616,PAYLOAD,2023-11-19 13:42:45,14.98327912,0.000291,70.0006,45.1051,268.6723,91.4102,2.2258e-05,1.73e-06,0.0,0 STARLINK-5616,1 55417U 23014AC  23323.57135969  .00000173  00000-0  22258-4 0  9994,2 55417  70.0006  45.1051 0002910 268.6723  91.4102 14.98327912 45573,6950.199,96.107,574.087,570.042,0.0
55417.0,STARLINK-5616,PAYLOAD,2023-11-19 15:18:53,14.98327478,0.0002993,70.0005,44.936,270.273,89.8086,6.4205e-05,6.73e-06,0.0,0 STARLINK-5616,1 55417U 23014AC  23323.63811886  .00000673  00000-0  64205-4 0  9993,2 55417  70.0005  44.9360 0002993 270.2730  89.8086 14.98327478 45580,6950.201,96.107,574.146,569.985,0.0
